{
  "type": "FeatureCollection",
  "features": [
    {
      "type": "Feature",
      "id": 1,
      "geometry": {
        "type": "Polygon",
        "coordinates": [
          [
            [
              172.93481247302114,
              -43.72320017802011
            ],
            [
              172.93458278187248,
              -43.723033390029975
            ],
            [
              172.9343528025289,
              -43.72319991494381
            ],
            [
              172.93458241918188,
              -43.723366704248974
            ],
            [
              172.93481247302114,
              -43.72320017802011
            ]
          ]
        ]
      },
      "properties": {
        "OBJECTID": 1,
        "Shape_Length": 104.713039739157,
        "Shape_Area": 685.3012800103583,
        "Type": "Landslide"

      }
    }
  ]
}
